0 SL-6 R/B(2)
1 25488U 98054D   13280.42186223 -.00001008  00000-0  00000+0 0  4089
2 25488 063.4055 018.4512 7420606 252.8931 274.2835 01.96419595107770
0 SL-6 R/B(2)
1 25488U 98054D   13283.11721176 -.00000634  00000-0  00000+0 0  4107
2 25488 063.4016 018.0401 7422586 252.8930 020.1626 01.96416348107834
0 SL-6 R/B(2)
1 25488U 98054D   13283.41950487 -.00001132  00000-0  00000+0 0  4091
2 25488 063.3995 018.0014 7421521 252.9018 233.9283 01.96416087107838
0 SL-6 R/B(2)
1 25488U 98054D   13287.65599072 -.00000331  00000-0  00000+0 0  4102
2 25488 063.3924 017.3642 7422619 252.9130 349.4344 01.96405035107914
0 SL-6 R/B(2)
1 25488U 98054D   13292.14017505  .00000823  00000-0  00000+0 0  4114
2 25488 063.3870 016.6911 7423996 252.9251 279.9332 01.96398838108005
